start=new Date('2022-04-16T00:00:00.000Z').valueOf();
sats=[{"EPHEMERIS_TYPE":"0","LAUNCH_DATE":"2021-12-18","PERIAPSIS":"538.498","REV_AT_EPOCH":"361","COUNTRY_CODE":"US","MEAN_ELEMENT_THEORY":"SGP4","ELEMENT_SET_NO":"999","CENTER_NAME":"EARTH","OBJECT_ID":"2021-125BD","MEAN_MOTION":"15.08826309","NORAD_CAT_ID":"50207","OBJECT_TYPE":"PAYLOAD","GP_ID":"201343632","TLE_LINE1":"1 50207U 21125BD  22105.91667824  .00030444  00000-0  19234-2 0  9994","MEAN_ANOMALY":"9.6972","BSTAR":"0.00192340000000","TLE_LINE2":"2 50207  53.2158 150.6697 0001864  46.2074   9.6972 15.08826309  3611","FILE":"3403567","RA_OF_ASC_NODE":"150.6697","MEAN_MOTION_DOT":"0.00030444","MEAN_MOTION_DDOT":"0.0000000000000","REF_FRAME":"TEME","TIME_SYSTEM":"UTC","DECAY_DATE":null,"RCS_SIZE":"LARGE","SEMIMAJOR_AXIS":"6917.922","OBJECT_NAME":"STARLINK-3262","PERIOD":"95.438","SITE":"AFWTR","ARG_OF_PERICENTER":"46.2074","ECCENTRICITY":"0.00018640","EPOCH":"2022-04-15T22:00:00.999936","INCLINATION":"53.2158","APOAPSIS":"541.077","CLASSIFICATION_TYPE":"U"},{"LAUNCH_DATE":"2022-01-06","EPHEMERIS_TYPE":"0","PERIAPSIS":"538.752","MEAN_ELEMENT_THEORY":"SGP4","COUNTRY_CODE":"US","REV_AT_EPOCH":"361","OBJECT_ID":"2022-001A","ELEMENT_SET_NO":"999","CENTER_NAME":"EARTH","OBJECT_TYPE":"PAYLOAD","GP_ID":"201344432","MEAN_MOTION":"15.08791331","NORAD_CAT_ID":"50803","TLE_LINE1":"1 50803U 22001A   22105.91667824  .00071667  00000-0  44816-2 0  9996","BSTAR":"0.00448160000000","MEAN_ANOMALY":"88.4208","TLE_LINE2":"2 50803  53.2165  80.6680 0001651  52.4650  88.4208 15.08791331  3611","FILE":"3403567","RA_OF_ASC_NODE":"80.6680","MEAN_MOTION_DDOT":"0.0000000000000","MEAN_MOTION_DOT":"0.00071667","TIME_SYSTEM":"UTC","REF_FRAME":"TEME","DECAY_DATE":null,"RCS_SIZE":"LARGE","SEMIMAJOR_AXIS":"6918.029","PERIOD":"95.441","OBJECT_NAME":"STARLINK-3321","SITE":"AFETR","ARG_OF_PERICENTER":"52.4650","ECCENTRICITY":"0.00016510","EPOCH":"2022-04-15T22:00:00.999936","INCLINATION":"53.2165","CLASSIFICATION_TYPE":"U","APOAPSIS":"541.036"},{"SEMIMAJOR_AXIS":"6829.865","SITE":"AFETR","PERIOD":"93.622","OBJECT_NAME":"STARLINK-3323","MEAN_MOTION_DOT":"-0.00716287","MEAN_MOTION_DDOT":"0.0000000000000","RCS_SIZE":"LARGE","DECAY_DATE":null,"TIME_SYSTEM":"UTC","REF_FRAME":"TEME","INCLINATION":"53.2174","CLASSIFICATION_TYPE":"U","APOAPSIS":"452.730","ARG_OF_PERICENTER":"45.6558","ECCENTRICITY":"0.00014630","EPOCH":"2022-04-15T22:00:00.999936","OBJECT_TYPE":"PAYLOAD","GP_ID":"201344183","MEAN_MOTION":"15.38099888","NORAD_CAT_ID":"50804","OBJECT_ID":"2022-001B","ELEMENT_SET_NO":"999","CENTER_NAME":"EARTH","TLE_LINE1":"1 50804U 22001B   22105.91667824 -.00716287  00000-0 -20364-1 0  9994","PERIAPSIS":"450.731","EPHEMERIS_TYPE":"0","LAUNCH_DATE":"2022-01-06","COUNTRY_CODE":"US","MEAN_ELEMENT_THEORY":"SGP4","REV_AT_EPOCH":"365","RA_OF_ASC_NODE":"72.7409","MEAN_ANOMALY":"341.4969","BSTAR":"-0.02036400000000","FILE":"3403567","TLE_LINE2":"2 50804  53.2174  72.7409 0001463  45.6558 341.4969 15.38099888  3656"},{"MEAN_MOTION_DOT":"-0.00716274","MEAN_MOTION_DDOT":"0.0000000000000","DECAY_DATE":null,"RCS_SIZE":"LARGE","REF_FRAME":"TEME","TIME_SYSTEM":"UTC","SEMIMAJOR_AXIS":"6829.487","SITE":"AFETR","OBJECT_NAME":"STARLINK-3333","PERIOD":"93.614","ECCENTRICITY":"0.00015730","ARG_OF_PERICENTER":"39.7099","EPOCH":"2022-04-15T22:00:00.999936","INCLINATION":"53.2174","APOAPSIS":"452.426","CLASSIFICATION_TYPE":"U","PERIAPSIS":"450.278","LAUNCH_DATE":"2022-01-06","EPHEMERIS_TYPE":"0","REV_AT_EPOCH":"365","MEAN_ELEMENT_THEORY":"SGP4","COUNTRY_CODE":"US","NORAD_CAT_ID":"50805","MEAN_MOTION":"15.38227682","GP_ID":"201342931","OBJECT_TYPE":"PAYLOAD","ELEMENT_SET_NO":"999","CENTER_NAME":"EARTH","OBJECT_ID":"2022-001C","TLE_LINE1":"1 50805U 22001C   22105.91667824 -.00716274  00000-0 -20278-1 0  9995","BSTAR":"-0.02027800000000","MEAN_ANOMALY":"358.6219","FILE":"3403567","TLE_LINE2":"2 50805  53.2174  72.7408 0001573  39.7099 358.6219 15.38227682  3655","RA_OF_ASC_NODE":"72.7408"},{"REF_FRAME":"TEME","TIME_SYSTEM":"UTC","DECAY_DATE":null,"RCS_SIZE":"LARGE","MEAN_MOTION_DDOT":"0.0000000000000","MEAN_MOTION_DOT":"-0.00716430","OBJECT_NAME":"STARLINK-3335","PERIOD":"93.606","SITE":"AFETR","SEMIMAJOR_AXIS":"6829.109","EPOCH":"2022-04-15T22:00:00.999936","ECCENTRICITY":"0.00015360","ARG_OF_PERICENTER":"41.9254","CLASSIFICATION_TYPE":"U","APOAPSIS":"452.023","INCLINATION":"53.2174","REV_AT_EPOCH":"365","COUNTRY_CODE":"US","MEAN_ELEMENT_THEORY":"SGP4","EPHEMERIS_TYPE":"0","LAUNCH_DATE":"2022-01-06","PERIAPSIS":"449.925","TLE_LINE1":"1 50806U 22001D   22105.91667824 -.00716430  00000-0 -20198-1 0  9991","CENTER_NAME":"EARTH","ELEMENT_SET_NO":"999","OBJECT_ID":"2022-001D","NORAD_CAT_ID":"50806","MEAN_MOTION":"15.38355571","OBJECT_TYPE":"PAYLOAD","GP_ID":"201343181","TLE_LINE2":"2 50806  53.2174  72.7406 0001536  41.9254   7.5474 15.38355571  3653","FILE":"3403567","BSTAR":"-0.02019800000000","MEAN_ANOMALY":"7.5474","RA_OF_ASC_NODE":"72.7406"},{"INCLINATION":"53.2175","CLASSIFICATION_TYPE":"U","APOAPSIS":"450.664","ECCENTRICITY":"0.00017640","ARG_OF_PERICENTER":"36.6638","EPOCH":"2022-04-15T22:00:00.999936","SEMIMAJOR_AXIS":"6827.595","OBJECT_NAME":"STARLINK-3353","PERIOD":"93.575","SITE":"AFETR","MEAN_MOTION_DOT":"-0.00717196","MEAN_MOTION_DDOT":"0.0000000000000","REF_FRAME":"TEME","TIME_SYSTEM":"UTC","DECAY_DATE":null,"RCS_SIZE":"LARGE","RA_OF_ASC_NODE":"72.7391","BSTAR":"-0.01988300000000","MEAN_ANOMALY":"56.9882","TLE_LINE2":"2 50807  53.2175  72.7391 0001764  36.6638  56.9882 15.38867299  3654","FILE":"3403567","CENTER_NAME":"EARTH","ELEMENT_SET_NO":"999","OBJECT_ID":"2022-001E","NORAD_CAT_ID":"50807","MEAN_MOTION":"15.38867299","GP_ID":"201343933","OBJECT_TYPE":"PAYLOAD","TLE_LINE1":"1 50807U 22001E   22105.91667824 -.00717196  00000-0 -19883-1 0  9991","LAUNCH_DATE":"2022-01-06","EPHEMERIS_TYPE":"0","PERIAPSIS":"448.255","REV_AT_EPOCH":"365","COUNTRY_CODE":"US","MEAN_ELEMENT_THEORY":"SGP4"},{"ELEMENT_SET_NO":"999","CENTER_NAME":"EARTH","OBJECT_ID":"2022-001F","MEAN_MOTION":"15.38611457","NORAD_CAT_ID":"50808","OBJECT_TYPE":"PAYLOAD","GP_ID":"201344683","TLE_LINE1":"1 50808U 22001F   22105.91667824 -.00716959  00000-0 -20044-1 0  9999","EPHEMERIS_TYPE":"0","LAUNCH_DATE":"2022-01-06","PERIAPSIS":"449.024","REV_AT_EPOCH":"365","MEAN_ELEMENT_THEORY":"SGP4","COUNTRY_CODE":"US","RA_OF_ASC_NODE":"72.7400","BSTAR":"-0.02004400000000","MEAN_ANOMALY":"36.2412","TLE_LINE2":"2 50808  53.2174  72.7400 0001747  35.3980  36.2412 15.38611457  3655","FILE":"3403567","SEMIMAJOR_AXIS":"6828.351","OBJECT_NAME":"STARLINK-3355","PERIOD":"93.591","SITE":"AFETR","MEAN_MOTION_DOT":"-0.00716959","MEAN_MOTION_DDOT":"0.0000000000000","REF_FRAME":"TEME","TIME_SYSTEM":"UTC","RCS_SIZE":"LARGE","DECAY_DATE":null,"INCLINATION":"53.2174","APOAPSIS":"451.409","CLASSIFICATION_TYPE":"U","ECCENTRICITY":"0.00017470","ARG_OF_PERICENTER":"35.3980","EPOCH":"2022-04-15T22:00:00.999936"},{"SEMIMAJOR_AXIS":"6828.730","SITE":"AFETR","OBJECT_NAME":"STARLINK-3232","PERIOD":"93.599","MEAN_MOTION_DDOT":"0.0000000000000","MEAN_MOTION_DOT":"-0.00716646","RCS_SIZE":"LARGE","DECAY_DATE":null,"REF_FRAME":"TEME","TIME_SYSTEM":"UTC","INCLINATION":"53.2174","CLASSIFICATION_TYPE":"U","APOAPSIS":"451.787","ARG_OF_PERICENTER":"34.7888","ECCENTRICITY":"0.00017450","EPOCH":"2022-04-15T22:00:00.999936","MEAN_MOTION":"15.38483474","NORAD_CAT_ID":"50809","OBJECT_TYPE":"PAYLOAD","GP_ID":"201343431","CENTER_NAME":"EARTH","ELEMENT_SET_NO":"999","OBJECT_ID":"2022-001G","TLE_LINE1":"1 50809U 22001G   22105.91667824 -.00716646  00000-0 -20119-1 0  9996","PERIAPSIS":"449.404","LAUNCH_DATE":"2022-01-06","EPHEMERIS_TYPE":"0","REV_AT_EPOCH":"365","MEAN_ELEMENT_THEORY":"SGP4","COUNTRY_CODE":"US","RA_OF_ASC_NODE":"72.7404","BSTAR":"-0.02011900000000","MEAN_ANOMALY":"25.7864","FILE":"3403567","TLE_LINE2":"2 50809  53.2174  72.7404 0001745  34.7888  25.7864 15.38483474  3658"},{"OBJECT_NAME":"STARLINK-3348","PERIOD":"93.583","SITE":"AFETR","SEMIMAJOR_AXIS":"6827.973","REF_FRAME":"TEME","TIME_SYSTEM":"UTC","RCS_SIZE":"LARGE","DECAY_DATE":null,"MEAN_MOTION_DOT":"-0.00717153","MEAN_MOTION_DDOT":"0.0000000000000","APOAPSIS":"450.978","CLASSIFICATION_TYPE":"U","INCLINATION":"53.2175","EPOCH":"2022-04-15T22:00:00.999936","ECCENTRICITY":"0.00016700","ARG_OF_PERICENTER":"38.7487","TLE_LINE1":"1 50810U 22001H   22105.91667824 -.00717153  00000-0 -19966-1 0  9990","ELEMENT_SET_NO":"999","CENTER_NAME":"EARTH","OBJECT_ID":"2022-001H","NORAD_CAT_ID":"50810","MEAN_MOTION":"15.38739406","GP_ID":"201343681","OBJECT_TYPE":"PAYLOAD","REV_AT_EPOCH":"365","MEAN_ELEMENT_THEORY":"SGP4","COUNTRY_CODE":"US","LAUNCH_DATE":"2022-01-06","EPHEMERIS_TYPE":"0","PERIAPSIS":"448.698","RA_OF_ASC_NODE":"72.7396","TLE_LINE2":"2 50810  53.2175  72.7396 0001670  38.7487  43.9161 15.38739406  3658","FILE":"3403567","MEAN_ANOMALY":"43.9161","BSTAR":"-0.01996600000000"},{"MEAN_MOTION_DOT":"-0.00717394","MEAN_MOTION_DDOT":"0.0000000000000","RCS_SIZE":"LARGE","DECAY_DATE":null,"REF_FRAME":"TEME","TIME_SYSTEM":"UTC","SEMIMAJOR_AXIS":"6827.216","SITE":"AFETR","OBJECT_NAME":"STARLINK-3347","PERIOD":"93.568","ARG_OF_PERICENTER":"37.6632","ECCENTRICITY":"0.00018250","EPOCH":"2022-04-15T22:00:00.999936","INCLINATION":"53.2175","CLASSIFICATION_TYPE":"U","APOAPSIS":"450.327","PERIAPSIS":"447.835","LAUNCH_DATE":"2022-01-06","EPHEMERIS_TYPE":"0","REV_AT_EPOCH":"365","COUNTRY_CODE":"US","MEAN_ELEMENT_THEORY":"SGP4","MEAN_MOTION":"15.38995217","NORAD_CAT_ID":"50811","GP_ID":"201344433","OBJECT_TYPE":"PAYLOAD","ELEMENT_SET_NO":"999","CENTER_NAME":"EARTH","OBJECT_ID":"2022-001J","TLE_LINE1":"1 50811U 22001J   22105.91667824 -.00717394  00000-0 -19805-1 0  9990","BSTAR":"-0.01980500000000","MEAN_ANOMALY":"66.9377","FILE":"3403567","TLE_LINE2":"2 50811  53.2175  72.7385 0001825  37.6632  66.9377 15.38995217  3657","RA_OF_ASC_NODE":"72.7385"}];
